[{"OBJECT_NAME":"CRYOSAT 2","OBJECT_ID":"2010-013A","EPOCH":"2026-03-09T23:23:15.606816","MEAN_MOTION":14.51908976,"ECCENTRICITY":0.00021015,"INCLINATION":92.0227,"RA_OF_ASC_NODE":253.2602,"ARG_OF_PERICENTER":89.6126,"MEAN_ANOMALY":270.5322,"EPHEMERIS_TYPE":0,"CLASSIFICATION_TYPE":"U","NORAD_CAT_ID":36508,"ELEMENT_SET_NO":999,"REV_AT_EPOCH":84368,"BSTAR":7.5819488e-5,"MEAN_MOTION_DOT":3.08e-6,"MEAN_MOTION_DDOT":0},{"OBJECT_NAME":"SL-14 DEB","OBJECT_ID":"1987-068CZ","EPOCH":"2026-02-23T14:33:43.339104","MEAN_MOTION":14.54582838,"ECCENTRICITY":0.00177419,"INCLINATION":83.0292,"RA_OF_ASC_NODE":7.2004,"ARG_OF_PERICENTER":167.8025,"MEAN_ANOMALY":192.3609,"EPHEMERIS_TYPE":0,"CLASSIFICATION_TYPE":"U","NORAD_CAT_ID":39973,"ELEMENT_SET_NO":999,"REV_AT_EPOCH":61405,"BSTAR":0.001668667,"MEAN_MOTION_DOT":7.156e-5,"MEAN_MOTION_DDOT":0}]
